{
    "links": {
        "self": "http://www.neowsapp.com/rest/v1/neo/3843764?api_key=iIulBulltgU6a56xZRHN4H3l9WmuAYTsLGpBGhQ2"
    },
    "id": "3843764",
    "neo_reference_id": "3843764",
    "name": "(2019 RG)",
    "designation": "2019 RG",
    "nasa_jpl_url": "http://ssd.jpl.nasa.gov/sbdb.cgi?sstr=3843764",
    "absolute_magnitude_h": 21.8,
    "estimated_diameter": {
        "kilometers": {
            "estimated_diameter_min": 0.1160259082,
            "estimated_diameter_max": 0.2594418179
        },
        "meters": {
            "estimated_diameter_min": 116.0259082094,
            "estimated_diameter_max": 259.4418179074
        },
        "miles": {
            "estimated_diameter_min": 0.0720951346,
            "estimated_diameter_max": 0.1612096218
        },
        "feet": {
            "estimated_diameter_min": 380.6624406898,
            "estimated_diameter_max": 851.1870938635
        }
    },
    "is_potentially_hazardous_asteroid": false,
    "close_approach_data": [
        {
            "close_approach_date": "1995-08-23",
            "close_approach_date_full": "1995-Aug-23 22:26",
            "epoch_date_close_approach": 809216760000,
            "relative_velocity": {
                "kilometers_per_second": "10.5135120158",
                "kilometers_per_hour": "37848.6432569671",
                "miles_per_hour": "23517.6750281972"
            },
            "miss_distance": {
                "astronomical": "0.1814849449",
                "lunar": "70.5976435661",
                "kilometers": "27149761.194107363",
                "miles": "16870079.3300450894"
            },
            "orbiting_body": "Earth"
        },
        {
            "close_approach_date": "2019-08-14",
            "close_approach_date_full": "2019-Aug-14 04:02",
            "epoch_date_close_approach": 1565755320000,
            "relative_velocity": {
                "kilometers_per_second": "8.7148981597",
                "kilometers_per_hour": "31373.6333747615",
                "miles_per_hour": "19494.3556933345"
            },
            "miss_distance": {
                "astronomical": "0.2104246",
                "lunar": "81.8551694",
                "kilometers": "31479071.955602",
                "miles": "19560188.2952276"
            },
            "orbiting_body": "Earth"
        },
        {
            "close_approach_date": "2060-08-25",
            "close_approach_date_full": "2060-Aug-25 09:46",
            "epoch_date_close_approach": 2860652760000,
            "relative_velocity": {
                "kilometers_per_second": "11.3067024832",
                "kilometers_per_hour": "40704.128939561",
                "miles_per_hour": "25291.9627846956"
            },
            "miss_distance": {
                "astronomical": "0.2108553695",
                "lunar": "82.0227387355",
                "kilometers": "31543514.155262965",
                "miles": "19600230.821300317"
            },
            "orbiting_body": "Earth"
        }
    ],
    "orbital_data": {
        "orbit_id": "5",
        "orbit_determination_date": "2019-12-04 07:19:07",
        "first_observation_date": "2019-08-31",
        "last_observation_date": "2019-10-19",
        "data_arc_in_days": 49,
        "observations_used": 50,
        "orbit_uncertainty": "6",
        "minimum_orbit_intersection": ".156711",
        "jupiter_tisserand_invariant": "3.403",
        "epoch_osculation": "2459000.5",
        "eccentricity": ".497146100991713",
        "semi_major_axis": "2.2700017401293",
        "inclination": "14.37936612817633",
        "ascending_node_longitude": "340.0246413844903",
        "orbital_period": "1249.216500462493",
        "perihelion_distance": "1.141479225779615",
        "perihelion_argument": "331.2574251214691",
        "aphelion_distance": "3.398524254478986",
        "perihelion_time": "2458692.595572505554",
        "mean_anomaly": "88.73209236106193",
        "mean_motion": ".2881806315132072",
        "equinox": "J2000",
        "orbit_class": {
            "orbit_class_type": "AMO",
            "orbit_class_description": "Near-Earth asteroid orbits similar to that of 1221 Amor",
            "orbit_class_range": "1.017 AU < q (perihelion) < 1.3 AU"
        }
    },
    "is_sentry_object": false
}